{"type": "FeatureCollection", "features": [ {"type": "Feature", "properties": {"norad_id": 33599, "name": "FENGYUN 1C DEB", "group": "fengyun-1c-debris", "lat": 46.18064680748413, "lon": -105.78678918136428, "alt_km": 546.7305282243151, "timestamp": "2025-12-27T09:28:56.763150+00:00", "meta": {"OBJECT_NAME": "FENGYUN 1C DEB", "OBJECT_ID": "1999-025DCG", "EPOCH": "2025-12-25T23:37:33.854304", "MEAN_MOTION": 15.16315176, "ECCENTRICITY": 0.0121733, "INCLINATION": 96.6102, "RA_OF_ASC_NODE": 66.0422, "ARG_OF_PERICENTER": 252.911, "MEAN_ANOMALY": 105.8762, "EPHEMERIS_TYPE": 0, "CLASSIFICATION_TYPE": "U", "NORAD_CAT_ID": 33599, "ELEMENT_SET_NO": 999, "REV_AT_EPOCH": 66204, "BSTAR": 0.0016753, "MEAN_MOTION_DOT": 0.00039371, "MEAN_MOTION_DDOT": 0}, "tle": {"line1": "1 33599U 99025DCG 25359.98441961  .00039371  00000+0  16753-2 0  9996", "line2": "2 33599  96.6102  66.0422 0121733 252.9110 105.8762 15.16315176662045"}}, "geometry": {"type": "Point", "coordinates": [-105.78678918136428, 46.18064680748413]}}, {"type": "Feature", "properties": {"norad_id": 33601, "name": "FENGYUN 1C DEB", "group": "fengyun-1c-debris", "lat": -43.41054390208199, "lon": 164.3947752792698, "alt_km": 965.966908469286, "timestamp": "2025-12-27T09:28:56.763160+00:00", "meta": {"OBJECT_NAME": "FENGYUN 1C DEB", "OBJECT_ID": "1999-025DCJ", "EPOCH": "2025-12-26T09:49:00.253344", "MEAN_MOTION": 14.07968589, "ECCENTRICITY": 0.0158235, "INCLINATION": 98.3146, "RA_OF_ASC_NODE": 155.5341, "ARG_OF_PERICENTER": 103.6713, "MEAN_ANOMALY": 258.2132, "EPHEMERIS_TYPE": 0, "CLASSIFICATION_TYPE": "U", "NORAD_CAT_ID": 33601, "ELEMENT_SET_NO": 999, "REV_AT_EPOCH": 90872, "BSTAR": 0.00085503, "MEAN_MOTION_DOT": 1.592e-05, "MEAN_MOTION_DDOT": 0}, "tle": {"line1": "1 33601U 99025DCJ 25360.40903071  .00001592  00000+0  85503-3 0  9998", "line2": "2 33601  98.3146 155.5341 0158235 103.6713 258.2132 14.07968589908721"}}, "geometry": {"type": "Point", "coordinates": [164.3947752792698, -43.41054390208199]}}, {"type": "Feature", "properties": {"norad_id": 33603, "name": "FENGYUN 1C DEB", "group": "fengyun-1c-debris", "lat": -5.693962654602111, "lon": 117.61221170736964, "alt_km": 776.7958404163555, "timestamp": "2025-12-27T09:28:56.763170+00:00", "meta": {"OBJECT_NAME": "FENGYUN 1C DEB", "OBJECT_ID": "1999-025DCL", "EPOCH": "2025-12-24T14:07:49.848096", "MEAN_MOTION": 14.79984872, "ECCENTRICITY": 0.02199615, "INCLINATION": 98.8064, "RA_OF_ASC_NODE": 295.4202, "ARG_OF_PERICENTER": 35.1993, "MEAN_ANOMALY": 326.3521, "EPHEMERIS_TYPE": 0, "CLASSIFICATION_TYPE": "U", "NORAD_CAT_ID": 33603, "ELEMENT_SET_NO": 999, "REV_AT_EPOCH": 99035, "BSTAR": 0.00030515268, "MEAN_MOTION_DOT": 3.413e-05, "MEAN_MOTION_DDOT": 0}, "tle": {"line1": "1 33603U 99025DCL 25358.58877139  .00003413  00000+0  30515-3 0  9998", "line2": "2 33603  98.8064 295.4202 0219961  35.1993 326.3521 14.79984872990351"}}, "geometry": {"type": "Point", "coordinates": [117.61221170736964, -5.693962654602111]}}, {"type": "Feature", "properties": {"norad_id": 33605, "name": "FENGYUN 1C DEB", "group": "fengyun-1c-debris", "lat": -62.43884701946669, "lon": 162.82052873788595, "alt_km": 909.7934302282529, "timestamp": "2025-12-27T09:28:56.763180+00:00", "meta": {"OBJECT_NAME": "FENGYUN 1C DEB", "OBJECT_ID": "1999-025DCN", "EPOCH": "2025-12-26T06:48:43.655904", "MEAN_MOTION": 14.07794683, "ECCENTRICITY": 0.0056867, "INCLINATION": 98.6991, "RA_OF_ASC_NODE": 358.8081, "ARG_OF_PERICENTER": 37.0959, "MEAN_ANOMALY": 338.1047, "EPHEMERIS_TYPE": 0, "CLASSIFICATION_TYPE": "U", "NORAD_CAT_ID": 33605, "ELEMENT_SET_NO": 999, "REV_AT_EPOCH": 60009, "BSTAR": 0.00064401, "MEAN_MOTION_DOT": 1.065e-05, "MEAN_MOTION_DDOT": 0}, "tle": {"line1": "1 33605U 99025DCN 25360.28383861  .00001065  00000+0  64401-3 0  9996", "line2": "2 33605  98.6991 358.8081 0056867  37.0959 338.1047 14.07794683600099"}}, "geometry": {"type": "Point", "coordinates": [162.82052873788595, -62.43884701946669]}}, {"type": "Feature", "properties": {"norad_id": 33612, "name": "FENGYUN 1C DEB", "group": "fengyun-1c-debris", "lat": 14.235115532204098, "lon": -32.37227080761735, "alt_km": 831.1519858522415, "timestamp": "2025-12-27T09:28:56.763190+00:00", "meta": {"OBJECT_NAME": "FENGYUN 1C DEB", "OBJECT_ID": "1999-025DCV", "EPOCH": "2025-12-13T20:28:43.869792", "MEAN_MOTION": 14.04084486, "ECCENTRICITY": 0.01112826, "INCLINATION": 98.5972, "RA_OF_ASC_NODE": 317.0094, "ARG_OF_PERICENTER": 105.6891, "MEAN_ANOMALY": 255.6586, "EPHEMERIS_TYPE": 0, "CLASSIFICATION_TYPE": "U", "NORAD_CAT_ID": 33612, "ELEMENT_SET_NO": 999, "REV_AT_EPOCH": 56689, "BSTAR": 0.0022025481, "MEAN_MOTION_DOT": 3.646e-05, "MEAN_MOTION_DDOT": 0}, "tle": {"line1": "1 33612U 99025DCV 25347.85328553  .00003646  00000+0  22025-2 0  9991", "line2": "2 33612  98.5972 317.0094 0111282 105.6891 255.6586 14.04084486566896"}}, "geometry": {"type": "Point", "coordinates": [-32.37227080761735, 14.235115532204098]}}, {"type": "Feature", "properties": {"norad_id": 33613, "name": "FENGYUN 1C DEB", "group": "fengyun-1c-debris", "lat": -72.0121935542931, "lon": -134.95169300671577, "alt_km": 806.3407211424883, "timestamp": "2025-12-27T09:28:56.763201+00:00", "meta": {"OBJECT_NAME": "FENGYUN 1C DEB", "OBJECT_ID": "1999-025DCW", "EPOCH": "2025-12-26T22:14:54.286080", "MEAN_MOTION": 14.33343865, "ECCENTRICITY": 0.0029514, "INCLINATION": 98.6949, "RA_OF_ASC_NODE": 72.6981, "ARG_OF_PERICENTER": 46.7831, "MEAN_ANOMALY": 313.581, "EPHEMERIS_TYPE": 0, "CLASSIFICATION_TYPE": "U", "NORAD_CAT_ID": 33613, "ELEMENT_SET_NO": 999, "REV_AT_EPOCH": 64713, "BSTAR": 0.0022475, "MEAN_MOTION_DOT": 6.183e-05, "MEAN_MOTION_DDOT": 0}, "tle": {"line1": "1 33613U 99025DCW 25360.92701720  .00006183  00000+0  22475-2 0  9994", "line2": "2 33613  98.6949  72.6981 0029514  46.7831 313.5810 14.33343865647138"}}, "geometry": {"type": "Point", "coordinates": [-134.95169300671577, -72.0121935542931]}}, {"type": "Feature", "properties": {"norad_id": 33618, "name": "FENGYUN 1C DEB", "group": "fengyun-1c-debris", "lat": -46.66670640171797, "lon": -99.94313491411738, "alt_km": 769.6065339700999, "timestamp": "2025-12-27T09:28:56.763211+00:00", "meta": {"OBJECT_NAME": "FENGYUN 1C DEB", "OBJECT_ID": "1999-025DDB", "EPOCH": "2025-12-26T12:45:14.908320", "MEAN_MOTION": 14.62259672, "ECCENTRICITY": 0.0164874, "INCLINATION": 98.5292, "RA_OF_ASC_NODE": 88.3178, "ARG_OF_PERICENTER": 97.8781, "MEAN_ANOMALY": 264.1169, "EPHEMERIS_TYPE": 0, "CLASSIFICATION_TYPE": "U", "NORAD_CAT_ID": 33618, "ELEMENT_SET_NO": 999, "REV_AT_EPOCH": 96985, "BSTAR": 0.00073718, "MEAN_MOTION_DOT": 4.462e-05, "MEAN_MOTION_DDOT": 0}, "tle": {"line1": "1 33618U 99025DDB 25360.53142255  .00004462  00000+0  73718-3 0  9993", "line2": "2 33618  98.5292  88.3178 0164874  97.8781 264.1169 14.62259672969853"}}, "geometry": {"type": "Point", "coordinates": [-99.94313491411738, -46.66670640171797]}}, {"type": "Feature", "properties": {"norad_id": 33619, "name": "FENGYUN 1C DEB", "group": "fengyun-1c-debris", "lat": -81.07579806128793, "lon": 154.1661235751119, "alt_km": 842.4650815628538, "timestamp": "2025-12-27T09:28:56.763221+00:00", "meta": {"OBJECT_NAME": "FENGYUN 1C DEB", "OBJECT_ID": "1999-025DDC", "EPOCH": "2025-12-22T11:19:13.450944", "MEAN_MOTION": 14.17552951, "ECCENTRICITY": 0.00502437, "INCLINATION": 98.8607, "RA_OF_ASC_NODE": 65.8437, "ARG_OF_PERICENTER": 17.8745, "MEAN_ANOMALY": 342.4183, "EPHEMERIS_TYPE": 0, "CLASSIFICATION_TYPE": "U", "NORAD_CAT_ID": 33619, "ELEMENT_SET_NO": 999, "REV_AT_EPOCH": 63762, "BSTAR": 0.0012593794, "MEAN_MOTION_DOT": 2.545e-05, "MEAN_MOTION_DDOT": 0}, "tle": {"line1": "1 33619U 99025DDC 25356.47168346  .00002545  00000+0  12594-2 0  9995", "line2": "2 33619  98.8607  65.8437 0050243  17.8745 342.4183 14.17552951637620"}}, "geometry": {"type": "Point", "coordinates": [154.1661235751119, -81.07579806128793]}}, {"type": "Feature", "properties": {"norad_id": 33621, "name": "FENGYUN 1C DEB", "group": "fengyun-1c-debris", "lat": -72.60865086957274, "lon": -121.82415558448437, "alt_km": 662.1288294623128, "timestamp": "2025-12-27T09:28:56.763237+00:00", "meta": {"OBJECT_NAME": "FENGYUN 1C DEB", "OBJECT_ID": "1999-025DDE", "EPOCH": "2025-12-10T20:17:14.702784", "MEAN_MOTION": 14.19482835, "ECCENTRICITY": 0.02846988, "INCLINATION": 98.1391, "RA_OF_ASC_NODE": 195.7496, "ARG_OF_PERICENTER": 300.0128, "MEAN_ANOMALY": 57.3079, "EPHEMERIS_TYPE": 0, "CLASSIFICATION_TYPE": "U", "NORAD_CAT_ID": 33621, "ELEMENT_SET_NO": 999, "REV_AT_EPOCH": 64217, "BSTAR": 0.00099524636, "MEAN_MOTION_DOT": 3.099e-05, "MEAN_MOTION_DDOT": 0}, "tle": {"line1": "1 33621U 99025DDE 25344.84530906  .00003099  00000+0  99525-3 0  9996", "line2": "2 33621  98.1391 195.7496 0284698 300.0128  57.3079 14.19482835642176"}}, "geometry": {"type": "Point", "coordinates": [-121.82415558448437, -72.60865086957274]}}, {"type": "Feature", "properties": {"norad_id": 33625, "name": "FENGYUN 1C DEB", "group": "fengyun-1c-debris", "lat": -18.8313269803049, "lon": -70.29753638804576, "alt_km": 742.566217935665, "timestamp": "2025-12-27T09:28:56.763247+00:00", "meta": {"OBJECT_NAME": "FENGYUN 1C DEB", "OBJECT_ID": "1999-025DDJ", "EPOCH": "2025-12-22T18:29:10.172832", "MEAN_MOTION": 14.61162738, "ECCENTRICITY": 0.02254632, "INCLINATION": 98.6202, "RA_OF_ASC_NODE": 107.8479, "ARG_OF_PERICENTER": 104.3386, "MEAN_ANOMALY": 258.2958, "EPHEMERIS_TYPE": 0, "CLASSIFICATION_TYPE": "U", "NORAD_CAT_ID": 33625, "ELEMENT_SET_NO": 999, "REV_AT_EPOCH": 61537, "BSTAR": 0.0010940286, "MEAN_MOTION_DOT": 7.684e-05, "MEAN_MOTION_DDOT": 0}, "tle": {"line1": "1 33625U 99025DDJ 25356.77025663  .00007684  00000+0  10940-2 0  9991", "line2": "2 33625  98.6202 107.8479 0225463 104.3386 258.2958 14.61162738615371"}}, "geometry": {"type": "Point", "coordinates": [-70.29753638804576, -18.8313269803049]}}]}